[{"OBJECT_NAME":"STARLINK-35864","OBJECT_ID":"2025-298G","EPOCH":"2026-03-09T23:27:56.636640","MEAN_MOTION":14.98572932,"ECCENTRICITY":0.00033352,"INCLINATION":70.0031,"RA_OF_ASC_NODE":13.6076,"ARG_OF_PERICENTER":298.5733,"MEAN_ANOMALY":61.509,"EPHEMERIS_TYPE":0,"CLASSIFICATION_TYPE":"U","NORAD_CAT_ID":67081,"ELEMENT_SET_NO":999,"REV_AT_EPOCH":1326,"BSTAR":-0.01738886,"MEAN_MOTION_DOT":-0.00202964,"MEAN_MOTION_DDOT":0},{"OBJECT_NAME":"COSMOS 397 DEB","OBJECT_ID":"1971-015H","EPOCH":"2026-03-09T16:21:55.236384","MEAN_MOTION":13.85623668,"ECCENTRICITY":0.05722013,"INCLINATION":65.5786,"RA_OF_ASC_NODE":215.8732,"ARG_OF_PERICENTER":304.1204,"MEAN_ANOMALY":50.6825,"EPHEMERIS_TYPE":0,"CLASSIFICATION_TYPE":"U","NORAD_CAT_ID":5014,"ELEMENT_SET_NO":999,"REV_AT_EPOCH":66272,"BSTAR":0.00081446929,"MEAN_MOTION_DOT":3.353e-5,"MEAN_MOTION_DDOT":0}]
